{
    "links": {
        "self": "http://www.neowsapp.com/rest/v1/neo/3663822?api_key=iIulBulltgU6a56xZRHN4H3l9WmuAYTsLGpBGhQ2"
    },
    "id": "3663822",
    "neo_reference_id": "3663822",
    "name": "(2014 EJ24)",
    "designation": "2014 EJ24",
    "nasa_jpl_url": "http://ssd.jpl.nasa.gov/sbdb.cgi?sstr=3663822",
    "absolute_magnitude_h": 23.9,
    "estimated_diameter": {
        "kilometers": {
            "estimated_diameter_min": 0.04411182,
            "estimated_diameter_max": 0.0986370281
        },
        "meters": {
            "estimated_diameter_min": 44.1118199997,
            "estimated_diameter_max": 98.6370281305
        },
        "miles": {
            "estimated_diameter_min": 0.0274098057,
            "estimated_diameter_max": 0.0612901888
        },
        "feet": {
            "estimated_diameter_min": 144.7238235278,
            "estimated_diameter_max": 323.6123073718
        }
    },
    "is_potentially_hazardous_asteroid": false,
    "close_approach_data": [
        {
            "close_approach_date": "2012-11-21",
            "close_approach_date_full": "2012-Nov-21 18:39",
            "epoch_date_close_approach": 1353523140000,
            "relative_velocity": {
                "kilometers_per_second": "5.4281504518",
                "kilometers_per_hour": "19541.3416264294",
                "miles_per_hour": "12142.2297456"
            },
            "miss_distance": {
                "astronomical": "1.9591799453",
                "lunar": "762.1209987217",
                "kilometers": "293089146.763596511",
                "miles": "182117150.9143974118"
            },
            "orbiting_body": "Juptr"
        },
        {
            "close_approach_date": "2014-03-14",
            "close_approach_date_full": "2014-Mar-14 08:49",
            "epoch_date_close_approach": 1394786940000,
            "relative_velocity": {
                "kilometers_per_second": "22.413977242",
                "kilometers_per_hour": "80690.3180713199",
                "miles_per_hour": "50137.8256927043"
            },
            "miss_distance": {
                "astronomical": "0.0263126723",
                "lunar": "10.2356295247",
                "kilometers": "3936319.730088001",
                "miles": "2445915.6616603738"
            },
            "orbiting_body": "Earth"
        },
        {
            "close_approach_date": "2014-05-22",
            "close_approach_date_full": "2014-May-22 21:06",
            "epoch_date_close_approach": 1400792760000,
            "relative_velocity": {
                "kilometers_per_second": "18.8124382255",
                "kilometers_per_hour": "67724.7776118457",
                "miles_per_hour": "42081.5430666494"
            },
            "miss_distance": {
                "astronomical": "0.0258597394",
                "lunar": "10.0594386266",
                "kilometers": "3868561.932995078",
                "miles": "2403812.9188769564"
            },
            "orbiting_body": "Venus"
        }
    ],
    "orbital_data": {
        "orbit_id": "7",
        "orbit_determination_date": "2019-07-17 06:09:59",
        "first_observation_date": "2014-03-06",
        "last_observation_date": "2014-03-13",
        "data_arc_in_days": 7,
        "observations_used": 46,
        "orbit_uncertainty": "8",
        "minimum_orbit_intersection": ".0134203",
        "jupiter_tisserand_invariant": "3.484",
        "epoch_osculation": "2456724.5",
        "eccentricity": ".7082197800566246",
        "semi_major_axis": "1.991864351532473",
        "inclination": "4.00685499411019",
        "ascending_node_longitude": "343.6830252792475",
        "orbital_period": "1026.805214492659",
        "perihelion_distance": ".581186618587514",
        "perihelion_argument": "281.3133620380332",
        "aphelion_distance": "3.402542084477433",
        "perihelion_time": "2456777.421051549168",
        "mean_anomaly": "341.4457715165444",
        "mean_motion": ".3506020371915182",
        "equinox": "J2000",
        "orbit_class": {
            "orbit_class_type": "APO",
            "orbit_class_description": "Near-Earth asteroid orbits which cross the Earth’s orbit similar to that of 1862 Apollo",
            "orbit_class_range": "a (semi-major axis) > 1.0 AU; q (perihelion) < 1.017 AU"
        }
    },
    "is_sentry_object": false
}